{"type": "FeatureCollection", "features": [ {"type": "Feature", "properties": {"norad_id": 35469, "name": "COSMOS 2251 DEB", "group": "cosmos-2251-debris", "lat": 46.73939111619138, "lon": 167.95755517809536, "alt_km": 673.6342479791683, "timestamp": "2025-12-22T09:53:37.796294+00:00", "meta": {"OBJECT_NAME": "COSMOS 2251 DEB", "OBJECT_ID": "1993-036ALP", "EPOCH": "2025-12-20T07:36:40.266144", "MEAN_MOTION": 14.4982565, "ECCENTRICITY": 0.00765645, "INCLINATION": 74.0168, "RA_OF_ASC_NODE": 9.6263, "ARG_OF_PERICENTER": 163.1432, "MEAN_ANOMALY": 197.23, "EPHEMERIS_TYPE": 0, "CLASSIFICATION_TYPE": "U", "NORAD_CAT_ID": 35469, "ELEMENT_SET_NO": 999, "REV_AT_EPOCH": 88221, "BSTAR": 6.7527967e-05, "MEAN_MOTION_DOT": 2.41e-06, "MEAN_MOTION_DDOT": 0}, "tle": {"line1": "1 35469U 93036ALP 25354.31713271  .00000241  00000+0  67528-4 0  9990", "line2": "2 35469  74.0168   9.6263 0076564 163.1432 197.2300 14.49825650882216"}}, "geometry": {"type": "Point", "coordinates": [167.95755517809536, 46.73939111619138]}}, {"type": "Feature", "properties": {"norad_id": 35475, "name": "COSMOS 2251 DEB", "group": "cosmos-2251-debris", "lat": -37.78450295094703, "lon": 134.0277057007438, "alt_km": 670.2194636127651, "timestamp": "2025-12-22T09:53:37.796304+00:00", "meta": {"OBJECT_NAME": "COSMOS 2251 DEB", "OBJECT_ID": "1993-036ALV", "EPOCH": "2025-12-20T04:10:12.186624", "MEAN_MOTION": 14.69875936, "ECCENTRICITY": 0.00202744, "INCLINATION": 74.0213, "RA_OF_ASC_NODE": 151.2034, "ARG_OF_PERICENTER": 223.9843, "MEAN_ANOMALY": 135.9716, "EPHEMERIS_TYPE": 0, "CLASSIFICATION_TYPE": "U", "NORAD_CAT_ID": 35475, "ELEMENT_SET_NO": 999, "REV_AT_EPOCH": 65726, "BSTAR": 0.0012274408, "MEAN_MOTION_DOT": 7.339e-05, "MEAN_MOTION_DDOT": 0}, "tle": {"line1": "1 35475U 93036ALV 25354.17375216  .00007339  00000+0  12274-2 0  9995", "line2": "2 35475  74.0213 151.2034 0020274 223.9843 135.9716 14.69875936657261"}}, "geometry": {"type": "Point", "coordinates": [134.0277057007438, -37.78450295094703]}}, {"type": "Feature", "properties": {"norad_id": 35476, "name": "COSMOS 2251 DEB", "group": "cosmos-2251-debris", "lat": 12.544536292515662, "lon": 45.59049853747162, "alt_km": 630.7386708667846, "timestamp": "2025-12-22T09:53:37.796313+00:00", "meta": {"OBJECT_NAME": "COSMOS 2251 DEB", "OBJECT_ID": "1993-036ALW", "EPOCH": "2025-12-20T04:26:15.503424", "MEAN_MOTION": 14.75816221, "ECCENTRICITY": 0.0018084, "INCLINATION": 73.9779, "RA_OF_ASC_NODE": 46.2965, "ARG_OF_PERICENTER": 24.5417, "MEAN_ANOMALY": 39.7285, "EPHEMERIS_TYPE": 0, "CLASSIFICATION_TYPE": "U", "NORAD_CAT_ID": 35476, "ELEMENT_SET_NO": 999, "REV_AT_EPOCH": 87997, "BSTAR": 0.00092006008, "MEAN_MOTION_DOT": 6.297e-05, "MEAN_MOTION_DDOT": 0}, "tle": {"line1": "1 35476U 93036ALW 25354.18490166  .00006297  00000+0  92006-3 0  9993", "line2": "2 35476  73.9779  46.2965 0018084  24.5417  39.7285 14.75816221879976"}}, "geometry": {"type": "Point", "coordinates": [45.59049853747162, 12.544536292515662]}}, {"type": "Feature", "properties": {"norad_id": 35580, "name": "COSMOS 2251 DEB", "group": "cosmos-2251-debris", "lat": 23.01066647946104, "lon": -24.771148475869012, "alt_km": 746.1953961973522, "timestamp": "2025-12-22T09:53:37.796323+00:00", "meta": {"OBJECT_NAME": "COSMOS 2251 DEB", "OBJECT_ID": "1993-036ALX", "EPOCH": "2025-12-21T17:31:49.222848", "MEAN_MOTION": 13.83913818, "ECCENTRICITY": 0.0280794, "INCLINATION": 73.9009, "RA_OF_ASC_NODE": 163.4331, "ARG_OF_PERICENTER": 166.9266, "MEAN_ANOMALY": 193.9339, "EPHEMERIS_TYPE": 0, "CLASSIFICATION_TYPE": "U", "NORAD_CAT_ID": 35580, "ELEMENT_SET_NO": 999, "REV_AT_EPOCH": 62381, "BSTAR": 0.0017137, "MEAN_MOTION_DOT": 2.557e-05, "MEAN_MOTION_DDOT": 0}, "tle": {"line1": "1 35580U 93036ALX 25355.73043082  .00002557  00000+0  17137-2 0  9998", "line2": "2 35580  73.9009 163.4331 0280794 166.9266 193.9339 13.83913818623810"}}, "geometry": {"type": "Point", "coordinates": [-24.771148475869012, 23.01066647946104]}}, {"type": "Feature", "properties": {"norad_id": 35583, "name": "COSMOS 2251 DEB", "group": "cosmos-2251-debris", "lat": -53.323126846132034, "lon": 173.54816486730553, "alt_km": 1021.2831006114029, "timestamp": "2025-12-22T09:53:37.796333+00:00", "meta": {"OBJECT_NAME": "COSMOS 2251 DEB", "OBJECT_ID": "1993-036AMA", "EPOCH": "2025-12-21T23:33:05.082912", "MEAN_MOTION": 13.55351375, "ECCENTRICITY": 0.0385038, "INCLINATION": 73.9159, "RA_OF_ASC_NODE": 197.0385, "ARG_OF_PERICENTER": 219.6858, "MEAN_ANOMALY": 137.5494, "EPHEMERIS_TYPE": 0, "CLASSIFICATION_TYPE": "U", "NORAD_CAT_ID": 35583, "ELEMENT_SET_NO": 999, "REV_AT_EPOCH": 82537, "BSTAR": 0.00079292, "MEAN_MOTION_DOT": 8.6e-06, "MEAN_MOTION_DDOT": 0}, "tle": {"line1": "1 35583U 93036AMA 25355.98130883  .00000860  00000+0  79292-3 0  9990", "line2": "2 35583  73.9159 197.0385 0385038 219.6858 137.5494 13.55351375825375"}}, "geometry": {"type": "Point", "coordinates": [173.54816486730553, -53.323126846132034]}}, {"type": "Feature", "properties": {"norad_id": 35585, "name": "COSMOS 2251 DEB", "group": "cosmos-2251-debris", "lat": -43.44168808282465, "lon": 168.05912410870508, "alt_km": 767.9326763326917, "timestamp": "2025-12-22T09:53:37.796343+00:00", "meta": {"OBJECT_NAME": "COSMOS 2251 DEB", "OBJECT_ID": "1993-036AMC", "EPOCH": "2025-12-21T09:07:18.442848", "MEAN_MOTION": 13.75269672, "ECCENTRICITY": 0.03103986, "INCLINATION": 73.9717, "RA_OF_ASC_NODE": 333.9847, "ARG_OF_PERICENTER": 244.5384, "MEAN_ANOMALY": 273.7703, "EPHEMERIS_TYPE": 0, "CLASSIFICATION_TYPE": "U", "NORAD_CAT_ID": 35585, "ELEMENT_SET_NO": 999, "REV_AT_EPOCH": 64182, "BSTAR": 0.00073727274, "MEAN_MOTION_DOT": 9.8e-06, "MEAN_MOTION_DDOT": 0}, "tle": {"line1": "1 35585U 93036AMC 25355.38007457  .00000980  00000+0  73727-3 0  9996", "line2": "2 35585  73.9717 333.9847 0310398 244.5384 273.7703 13.75269672641821"}}, "geometry": {"type": "Point", "coordinates": [168.05912410870508, -43.44168808282465]}}, {"type": "Feature", "properties": {"norad_id": 35586, "name": "COSMOS 2251 DEB", "group": "cosmos-2251-debris", "lat": -29.037840387247158, "lon": -82.16929453016611, "alt_km": 1365.6236898222687, "timestamp": "2025-12-22T09:53:37.796353+00:00", "meta": {"OBJECT_NAME": "COSMOS 2251 DEB", "OBJECT_ID": "1993-036AMD", "EPOCH": "2025-12-18T14:35:36.885984", "MEAN_MOTION": 13.5208875, "ECCENTRICITY": 0.04044314, "INCLINATION": 74.0204, "RA_OF_ASC_NODE": 293.076, "ARG_OF_PERICENTER": 167.1463, "MEAN_ANOMALY": 11.7227, "EPHEMERIS_TYPE": 0, "CLASSIFICATION_TYPE": "U", "NORAD_CAT_ID": 35586, "ELEMENT_SET_NO": 999, "REV_AT_EPOCH": 60461, "BSTAR": 0.00023975249, "MEAN_MOTION_DOT": 2.44e-06, "MEAN_MOTION_DDOT": 0}, "tle": {"line1": "1 35586U 93036AMD 25352.60806581  .00000244  00000+0  23975-3 0  9997", "line2": "2 35586  74.0204 293.0760 0404431 167.1463  11.7227 13.52088750604613"}}, "geometry": {"type": "Point", "coordinates": [-82.16929453016611, -29.037840387247158]}}, {"type": "Feature", "properties": {"norad_id": 35587, "name": "COSMOS 2251 DEB", "group": "cosmos-2251-debris", "lat": 31.62531561085204, "lon": 49.76115651888017, "alt_km": 724.3854142934915, "timestamp": "2025-12-22T09:53:37.796362+00:00", "meta": {"OBJECT_NAME": "COSMOS 2251 DEB", "OBJECT_ID": "1993-036AME", "EPOCH": "2025-12-21T20:41:18.597120", "MEAN_MOTION": 14.71550846, "ECCENTRICITY": 0.0102322, "INCLINATION": 74.0051, "RA_OF_ASC_NODE": 40.6582, "ARG_OF_PERICENTER": 226.293, "MEAN_ANOMALY": 132.9734, "EPHEMERIS_TYPE": 0, "CLASSIFICATION_TYPE": "U", "NORAD_CAT_ID": 35587, "ELEMENT_SET_NO": 999, "REV_AT_EPOCH": 66480, "BSTAR": 0.00023979, "MEAN_MOTION_DOT": 1.58e-05, "MEAN_MOTION_DDOT": 0}, "tle": {"line1": "1 35587U 93036AME 25355.86202080  .00001580  00000+0  23979-3 0  9991", "line2": "2 35587  74.0051  40.6582 0102322 226.2930 132.9734 14.71550846664800"}}, "geometry": {"type": "Point", "coordinates": [49.76115651888017, 31.62531561085204]}}, {"type": "Feature", "properties": {"norad_id": 35593, "name": "COSMOS 2251 DEB", "group": "cosmos-2251-debris", "lat": 7.734305708487092, "lon": -86.73986493802558, "alt_km": 810.8080532930153, "timestamp": "2025-12-22T09:53:37.796372+00:00", "meta": {"OBJECT_NAME": "COSMOS 2251 DEB", "OBJECT_ID": "1993-036AML", "EPOCH": "2025-12-22T03:07:10.854336", "MEAN_MOTION": 14.25629866, "ECCENTRICITY": 0.0105034, "INCLINATION": 74.0862, "RA_OF_ASC_NODE": 271.5473, "ARG_OF_PERICENTER": 275.9355, "MEAN_ANOMALY": 82.9829, "EPHEMERIS_TYPE": 0, "CLASSIFICATION_TYPE": "U", "NORAD_CAT_ID": 35593, "ELEMENT_SET_NO": 999, "REV_AT_EPOCH": 85199, "BSTAR": 0.00065797, "MEAN_MOTION_DOT": 1.626e-05, "MEAN_MOTION_DDOT": 0}, "tle": {"line1": "1 35593U 93036AML 25356.12998674  .00001626  00000+0  65797-3 0  9994", "line2": "2 35593  74.0862 271.5473 0105034 275.9355  82.9829 14.25629866851991"}}, "geometry": {"type": "Point", "coordinates": [-86.73986493802558, 7.734305708487092]}}, {"type": "Feature", "properties": {"norad_id": 35594, "name": "COSMOS 2251 DEB", "group": "cosmos-2251-debris", "lat": -34.927278830746445, "lon": 75.26533010478855, "alt_km": 621.0031703851737, "timestamp": "2025-12-22T09:53:37.796382+00:00", "meta": {"OBJECT_NAME": "COSMOS 2251 DEB", "OBJECT_ID": "1993-036AMM", "EPOCH": "2025-12-21T13:05:05.165088", "MEAN_MOTION": 14.8817141, "ECCENTRICITY": 0.0029279, "INCLINATION": 73.8068, "RA_OF_ASC_NODE": 88.7269, "ARG_OF_PERICENTER": 201.0189, "MEAN_ANOMALY": 158.9789, "EPHEMERIS_TYPE": 0, "CLASSIFICATION_TYPE": "U", "NORAD_CAT_ID": 35594, "ELEMENT_SET_NO": 999, "REV_AT_EPOCH": 88316, "BSTAR": 0.0013268, "MEAN_MOTION_DOT": 0.00012311, "MEAN_MOTION_DDOT": 0}, "tle": {"line1": "1 35594U 93036AMM 25355.54519867  .00012311  00000+0  13268-2 0  9991", "line2": "2 35594  73.8068  88.7269 0029279 201.0189 158.9789 14.88171410883168"}}, "geometry": {"type": "Point", "coordinates": [75.26533010478855, -34.927278830746445]}}]}